ORBCOMM FM24            
1 25478U 98053D   24311.92796358  .00005712  00000+0  19588-2 0  9998
2 25478  45.0069 242.0564 0000750 244.3383 115.7388 14.36907878365464
ORBCOMM FM25            
1 25479U 98053E   24311.89637097  .00006099  00000+0  20885-2 0  9990
2 25479  45.0066 240.4598 0003178 225.9173 134.1414 14.36898833365757
ORBCOMM FM26            
1 25480U 98053F   24311.91321225  .00005002  00000+0  17480-2 0  9998
2 25480  45.0058 235.3710 0005522 243.1125 116.9159 14.36139101365685
ORBCOMM FM28            
1 25482U 98053H   24311.89246668  .00004661  00000+0  15975-2 0  9991
2 25482  45.0035 178.6556 0003539 263.7163  96.3282 14.37208945366363
ORBCOMM FM30            
1 25980U 99065A   24311.78823947  .00005789  00000+0  20094-2 0  9997
2 25980  45.0314  61.6628 0005967 316.8104  43.2276 14.36284314302467
ORBCOMM FM31            
1 25981U 99065B   24311.75546950  .00005724  00000+0  19885-2 0  9996
2 25981  45.0233  55.3993 0002838 327.9132  32.1543 14.36262458302011
ORBCOMM FM32            
1 25982U 99065C   24311.65258496  .00005696  00000+0  20181-2 0  9990
2 25982  45.0152  70.9518 0004500 343.2790  16.7908 14.35278124302612
